ONEWEB-0300             
1 49089U 21075Q   25355.47171227  .00000426  00000+0  11485-2 0  9998
2 49089  87.8933  25.9513 0002095  93.7588 266.3780 13.12395029211899
ONEWEB-0301             
1 49090U 21075R   25355.37937792  .00000559  00000+0  15195-2 0  9995
2 49090  87.8941  25.9736 0002443 100.1385 260.0019 13.12382687211243
ONEWEB-0302             
1 49091U 21075S   25355.36582687 -.00000772  00000+0 -21824-2 0  9999
2 49091  87.8933  25.9826 0001593  98.9404 261.1905 13.12458018211222
ONEWEB-0304             
1 49092U 21075T   25355.17395766  .00000047  00000+0  89084-4 0  9996
2 49092  87.9109  41.2592 0001741 102.8497 257.2829 13.17650529210138
ONEWEB-0305             
1 49093U 21075U   25355.39502164  .00000017  00000+0  99055-5 0  9990
2 49093  87.9115  41.1930 0001775 112.7716 247.3603 13.17647937210197
ONEWEB-0308             
1 49094U 21075V   25355.51153294 -.00000287  00000+0 -83238-3 0  9996
2 49094  87.8935  25.9466 0001778  94.8631 265.2700 13.12497315211253
ONEWEB-0309             
1 49095U 21075W   25355.39840037  .00000021  00000+0  21613-4 0  9995
2 49095  87.9112  41.2076 0001357  95.3566 264.7721 13.17648574210162
ONEWEB-0310             
1 49096U 21075X   25355.37428839  .00000181  00000+0  46822-3 0  9991
2 49096  87.8934  26.0103 0001687  94.1789 265.9532 13.12408398211860
